{
  "type": "FeatureCollection",
  "features": [
    {
      "type": "Feature",
      "properties": {
        "norad_id": 31018,
        "name": "FENGYUN 1C DEB",
        "group": "fengyun-1c-debris",
        "lat": 11.531563953466197,
        "lon": 69.29392847051255,
        "alt_km": 858.798514037825,
        "timestamp": "2025-12-10T09:57:44.979316+00:00",
        "meta_object_name": "FENGYUN 1C DEB",
        "meta_object_id": "1999-025BDL",
        "meta_epoch": "2025-12-09T16:57:33.115392",
        "meta_mean_motion": 14.16891302,
        "meta_eccentricity": 0.0059433,
        "meta_inclination": 99.0244,
        "meta_ra_of_asc_node": 70.4335,
        "meta_arg_of_pericenter": 134.4285,
        "meta_mean_anomaly": 226.1775,
        "meta_ephemeris_type": 0,
        "meta_classification_type": "U",
        "meta_norad_cat_id": 31018,
        "meta_element_set_no": 999,
        "meta_rev_at_epoch": 96012,
        "meta_bstar": 0.002739,
        "meta_mean_motion_dot": 5.547e-05,
        "meta_mean_motion_ddot": 0,
        "tle_line1": "1 31018U 99025BDL 25343.70663328  .00005547  00000+0  27390-2 0  9993",
        "tle_line2": "2 31018  99.0244  70.4335 0059433 134.4285 226.1775 14.16891302960129"
      },
      "geometry": {
        "type": "Point",
        "coordinates": [
          69.29392847051255,
          11.531563953466197
        ]
      }
    },
    {
      "type": "Feature",
      "properties": {
        "norad_id": 31019,
        "name": "FENGYUN 1C DEB",
        "group": "fengyun-1c-debris",
        "lat": 11.848378597316879,
        "lon": 4.987814778876826,
        "alt_km": 2133.411777400547,
        "timestamp": "2025-12-10T09:57:44.979326+00:00",
        "meta_object_name": "FENGYUN 1C DEB",
        "meta_object_id": "1999-025BDM",
        "meta_epoch": "2025-12-06T19:46:46.488288",
        "meta_mean_motion": 11.82957686,
        "meta_eccentricity": 0.11189634,
        "meta_inclination": 98.7021,
        "meta_ra_of_asc_node": 180.7817,
        "meta_arg_of_pericenter": 294.848,
        "meta_mean_anomaly": 78.8585,
        "meta_ephemeris_type": 0,
        "meta_classification_type": "U",
        "meta_norad_cat_id": 31019,
        "meta_element_set_no": 999,
        "meta_rev_at_epoch": 55111,
        "meta_bstar": 0.0052564036,
        "meta_mean_motion_dot": 1.948e-05,
        "meta_mean_motion_ddot": 0,
        "tle_line1": "1 31019U 99025BDM 25340.82414917  .00001948  00000+0  52564-2 0  9994",
        "tle_line2": "2 31019  98.7021 180.7817 1118963 294.8480  78.8585 11.82957686551116"
      },
      "geometry": {
        "type": "Point",
        "coordinates": [
          4.987814778876826,
          11.848378597316879
        ]
      }
    },
    {
      "type": "Feature",
      "properties": {
        "norad_id": 31021,
        "name": "FENGYUN 1C DEB",
        "group": "fengyun-1c-debris",
        "lat": 33.21229654848425,
        "lon": 89.29111626796563,
        "alt_km": 793.8433810662082,
        "timestamp": "2025-12-10T09:57:44.979336+00:00",
        "meta_object_name": "FENGYUN 1C DEB",
        "meta_object_id": "1999-025BDP",
        "meta_epoch": "2025-11-23T02:39:04.527648",
        "meta_mean_motion": 14.74941254,
        "meta_eccentricity": 0.0268991,
        "meta_inclination": 98.348,
        "meta_ra_of_asc_node": 76.9426,
        "meta_arg_of_pericenter": 304.648,
        "meta_mean_anomaly": 52.9635,
        "meta_ephemeris_type": 0,
        "meta_classification_type": "U",
        "meta_norad_cat_id": 31021,
        "meta_element_set_no": 999,
        "meta_rev_at_epoch": 73143,
        "meta_bstar": 0.00041319973,
        "meta_mean_motion_dot": 4.94e-05,
        "meta_mean_motion_ddot": 0,
        "tle_line1": "1 31021U 99025BDP 25327.11046907  .00004940  00000+0  41320-3 0  9998",
        "tle_line2": "2 31021  98.3480  76.9426 0268991 304.6480  52.9635 14.74941254731434"
      },
      "geometry": {
        "type": "Point",
        "coordinates": [
          89.29111626796563,
          33.21229654848425
        ]
      }
    },
    {
      "type": "Feature",
      "properties": {
        "norad_id": 31022,
        "name": "FENGYUN 1C DEB",
        "group": "fengyun-1c-debris",
        "lat": -79.89551052395855,
        "lon": -61.709583387071476,
        "alt_km": 1000.124715712408,
        "timestamp": "2025-12-10T09:57:44.979364+00:00",
        "meta_object_name": "FENGYUN 1C DEB",
        "meta_object_id": "1999-025BDQ",
        "meta_epoch": "2025-12-08T10:01:50.103264",
        "meta_mean_motion": 13.90441238,
        "meta_eccentricity": 0.01098357,
        "meta_inclination": 99.5169,
        "meta_ra_of_asc_node": 225.9733,
        "meta_arg_of_pericenter": 133.3638,
        "meta_mean_anomaly": 227.6734,
        "meta_ephemeris_type": 0,
        "meta_classification_type": "U",
        "meta_norad_cat_id": 31022,
        "meta_element_set_no": 999,
        "meta_rev_at_epoch": 61948,
        "meta_bstar": 0.00064855511,
        "meta_mean_motion_dot": 8e-06,
        "meta_mean_motion_ddot": 0,
        "tle_line1": "1 31022U 99025BDQ 25342.41794101  .00000800  00000+0  64856-3 0  9995",
        "tle_line2": "2 31022  99.5169 225.9733 0109835 133.3638 227.6734 13.90441238619487"
      },
      "geometry": {
        "type": "Point",
        "coordinates": [
          -61.709583387071476,
          -79.89551052395855
        ]
      }
    },
    {
      "type": "Feature",
      "properties": {
        "norad_id": 31024,
        "name": "FENGYUN 1C DEB",
        "group": "fengyun-1c-debris",
        "lat": -72.87812081752985,
        "lon": 46.57638112838458,
        "alt_km": 859.7754506191213,
        "timestamp": "2025-12-10T09:57:44.979376+00:00",
        "meta_object_name": "FENGYUN 1C DEB",
        "meta_object_id": "1999-025BDS",
        "meta_epoch": "2025-12-08T00:59:52.413504",
        "meta_mean_motion": 14.20849862,
        "meta_eccentricity": 0.00749361,
        "meta_inclination": 99.0417,
        "meta_ra_of_asc_node": 255.2726,
        "meta_arg_of_pericenter": 137.9647,
        "meta_mean_anomaly": 222.7312,
        "meta_ephemeris_type": 0,
        "meta_classification_type": "U",
        "meta_norad_cat_id": 31024,
        "meta_element_set_no": 999,
        "meta_rev_at_epoch": 96637,
        "meta_bstar": 0.0004116989,
        "meta_mean_motion_dot": 8.7e-06,
        "meta_mean_motion_ddot": 0,
        "tle_line1": "1 31024U 99025BDS 25342.04157886  .00000870  00000+0  41170-3 0  9990",
        "tle_line2": "2 31024  99.0417 255.2726 0074936 137.9647 222.7312 14.20849862966371"
      },
      "geometry": {
        "type": "Point",
        "coordinates": [
          46.57638112838458,
          -72.87812081752985
        ]
      }
    },
    {
      "type": "Feature",
      "properties": {
        "norad_id": 31025,
        "name": "FENGYUN 1C DEB",
        "group": "fengyun-1c-debris",
        "lat": 80.91307975939179,
        "lon": -134.60063473781452,
        "alt_km": 778.5361179018073,
        "timestamp": "2025-12-10T09:57:44.979386+00:00",
        "meta_object_name": "FENGYUN 1C DEB",
        "meta_object_id": "1999-025BDT",
        "meta_epoch": "2025-12-07T05:28:07.771008",
        "meta_mean_motion": 14.20521805,
        "meta_eccentricity": 0.01734931,
        "meta_inclination": 98.58,
        "meta_ra_of_asc_node": 331.5793,
        "meta_arg_of_pericenter": 28.741,
        "meta_mean_anomaly": 332.3194,
        "meta_ephemeris_type": 0,
        "meta_classification_type": "U",
        "meta_norad_cat_id": 31025,
        "meta_element_set_no": 999,
        "meta_rev_at_epoch": 64287,
        "meta_bstar": 0.0012507545,
        "meta_mean_motion_dot": 3.084e-05,
        "meta_mean_motion_ddot": 0,
        "tle_line1": "1 31025U 99025BDT 25341.22786772  .00003084  00000+0  12508-2 0  9994",
        "tle_line2": "2 31025  98.5800 331.5793 0173493  28.7410 332.3194 14.20521805642873"
      },
      "geometry": {
        "type": "Point",
        "coordinates": [
          -134.60063473781452,
          80.91307975939179
        ]
      }
    },
    {
      "type": "Feature",
      "properties": {
        "norad_id": 31026,
        "name": "FENGYUN 1C DEB",
        "group": "fengyun-1c-debris",
        "lat": 44.482206448652626,
        "lon": -88.59930418307073,
        "alt_km": 1026.7112321323666,
        "timestamp": "2025-12-10T09:57:44.979396+00:00",
        "meta_object_name": "FENGYUN 1C DEB",
        "meta_object_id": "1999-025BDU",
        "meta_epoch": "2025-12-09T02:34:09.728256",
        "meta_mean_motion": 13.83396592,
        "meta_eccentricity": 0.01341455,
        "meta_inclination": 98.7789,
        "meta_ra_of_asc_node": 278.9084,
        "meta_arg_of_pericenter": 192.3786,
        "meta_mean_anomaly": 182.9359,
        "meta_ephemeris_type": 0,
        "meta_classification_type": "U",
        "meta_norad_cat_id": 31026,
        "meta_element_set_no": 999,
        "meta_rev_at_epoch": 67976,
        "meta_bstar": 0.00022773609,
        "meta_mean_motion_dot": 2.28e-06,
        "meta_mean_motion_ddot": 0,
        "tle_line1": "1 31026U 99025BDU 25343.10705704  .00000228  00000+0  22774-3 0  9994",
        "tle_line2": "2 31026  98.7789 278.9084 0134145 192.3786 182.9359 13.83396592679765"
      },
      "geometry": {
        "type": "Point",
        "coordinates": [
          -88.59930418307073,
          44.482206448652626
        ]
      }
    }
  ]
}